STARLINK-34673          
1 65090U 25167N   26121.31381636  .00021096  00000+0  72234-3 0  9992
2 65090  53.1607 142.4508 0000857 100.7794 259.3304 15.30200901 41536
STARLINK-34648          
1 65091U 25167P   26121.32726199  .00077101  00000+0  17624-2 0  9990
2 65091  53.1603 141.8239 0001044  98.7475 261.3649 15.42177236 41541
STARLINK-34640          
1 65092U 25167Q   26120.39519387  .00015902  00000+0  54784-3 0  9996
2 65092  53.1594 146.6708 0001210  79.9934 280.1204 15.30202742 41398
STARLINK-34266          
1 65093U 25167R   26121.05816111  .00056519  00000+0  12969-2 0  9993
2 65093  53.1603 142.9884 0001436  90.8547 269.2623 15.42200600 41506
STARLINK-34769          
1 65094U 25167S   26121.31811559  .00030525  00000+0  70754-3 0  9990
2 65094  53.1604 141.7661 0001487  86.8595 273.2581 15.42183956 41537
STARLINK-34768          
1 65095U 25167T   26121.31758062  .00056315  00000+0  12930-2 0  9996
2 65095  53.1604 141.7603 0001589 100.7176 259.4009 15.42183166 41543
STARLINK-34759          
1 65096U 25167U   26121.31565235  .00076575  00000+0  17490-2 0  9991
2 65096  53.1594 141.7472 0002399 110.4309 249.6955 15.42203168 41548
STARLINK-34741          
1 65097U 25167V   26121.31919983  .00084813  00000+0  19325-2 0  9998
2 65097  53.1594 141.7691 0000524 163.8190 196.2833 15.42229021 41548
STARLINK-34764          
1 65098U 25167W   26118.80859509  .00097468  00000+0  32440-2 0  9999
2 65098  53.1590 153.8274 0002194 204.4296 155.6602 15.30359271 41158
STARLINK-34815          
1 65099U 25167X   26121.25002315  .00007540  00000+0  23426-3 0  9995
2 65099  53.1577 142.3651 0000979 138.8886  61.9038 15.34373898  5719
STARLINK-34814          
1 65100U 25167Y   26121.28743578  .00023689  00000+0  80881-3 0  9994
2 65100  53.1569 142.2813 0001547  90.0923 270.0255 15.30222835 41539
STARLINK-34285          
1 65101U 25167Z   26121.28426961  .00021965  00000+0  75095-3 0  9995
2 65101  53.1569 142.2639 0001193 100.7356 259.3779 15.30225085 41533
STARLINK-34857          
1 65102U 25167AA  26121.28841356  .00067341  00000+0  15416-2 0  9993
2 65102  53.1579 141.5781 0000843  65.2538 294.8555 15.42194450 41533
STARLINK-34887          
1 65103U 25167AB  26121.27899306  .00032470  00000+0  11034-2 0  9998
2 65103  53.1566 142.2279 0001040  80.6914 279.4204 15.30207270 41531
STARLINK-34481          
1 65104U 25167AC  26121.28201421  .00054576  00000+0  12535-2 0  9993
2 65104  53.1592 141.5362 0000880  86.0907 274.0200 15.42189047 41530
STARLINK-34545          
1 65105U 25167AD  26121.28769540  .00073891  00000+0  16874-2 0  9996
2 65105  53.1595 141.5748 0001005 100.2795 259.8324 15.42226602 41544
HULIANWANG DIGUI-49     
1 65106U 25168A   26121.32430651 -.00000066  00000+0  12462-3 0  9996
2 65106  50.0007 134.0422 0008347 320.4987  39.5276 13.29315963 36455
HULIANWANG DIGUI-50     
1 65107U 25168B   26121.31588574 -.00000062  00000+0  13370-3 0  9999
2 65107  49.9978 133.9289 0009225 307.2539  52.7491 13.29315636 36454
HULIANWANG DIGUI-51     
1 65108U 25168C   26121.30733354 -.00000068  00000+0  12048-3 0  9994
2 65108  50.0014 133.9697 0010546 307.4207  52.5705 13.29318455 36452
HULIANWANG DIGUI-52     
1 65109U 25168D   26121.29912898 -.00000072  00000+0  11103-3 0  9991
2 65109  50.0008 133.9068 0010516 319.7865  40.2228 13.29316449 36456
HULIANWANG DIGUI-53     
1 65110U 25168E   26121.29078922 -.00000075  00000+0  10562-3 0  9995
2 65110  50.0016 133.8884 0009211 309.9652  50.0411 13.29319950 36450
HULIANWANG DIGUI-54     
1 65111U 25168F   26121.26594550 -.00000071  00000+0  11518-3 0  9991
2 65111  49.9966 133.6474 0010944 315.0985  44.9001 13.29319797 36453
HULIANWANG DIGUI-55     
1 65112U 25168G   26121.28234391 -.00000077  00000+0  10191-3 0  9990
2 65112  49.9972 133.7433 0012082 311.8987  48.0854 13.29316433 36453
HULIANWANG DIGUI-56     
1 65113U 25168H   26121.27404830 -.00000075  00000+0  10560-3 0  9995
2 65113  49.9964 133.6809 0011822 331.5764  28.4462 13.29315881 36457
HULIANWANG DIGUI-57     
1 65114U 25168J   26121.25761933 -.00000062  00000+0  13453-3 0  9994
2 65114  49.9992 133.6624 0009622 322.2689  37.7507 13.29319842 36467
QPS-SAR-12 (KUSHINADA-I)
1 65116U 25169A   26120.78232715  .00005327  00000+0  43047-3 0  9995
2 65116  42.0114 276.9531 0008204 265.2791  94.7098 15.00436451 40293
GEESAT-4 01             
1 65119U 25170A   26121.29437759  .00002473  00000+0  32219-3 0  9990
2 65119  49.9891  31.9023 0010222 231.5626 128.4395 14.83813437 39471
GEESAT-4 02             
1 65120U 25170B   26121.28344628  .00002328  00000+0  30484-3 0  9994
2 65120  49.9865  31.7733 0009876 269.1625  90.8182 14.83817506 39498
GEESAT-4 03             
1 65121U 25170C   26121.25116932  .00002319  00000+0  30274-3 0  9994
2 65121  49.9935  31.7407 0020548 241.9747 117.9113 14.83900005 39466
GEESAT-4 04             
1 65122U 25170D   26121.21114743  .00002558  00000+0  34536-3 0  9999
2 65122  49.9709 345.0270 0029923 132.3686 227.9792 14.81970435 40083
GEESAT-4 05             
1 65123U 25170E   26121.24481250  .00002263  00000+0  31012-3 0  9992
2 65123  49.9955 345.5875 0007842 140.2604 219.8910 14.81984116 40080
GEESAT-4 06             
1 65124U 25170F   26121.27351964  .00002343  00000+0  30607-3 0  9992
2 65124  49.9850  31.6699 0018605 220.8358 139.1187 14.83847233 39462
GEESAT-4 07             
1 65125U 25170G   26121.26301249  .00002355  00000+0  30743-3 0  9997
2 65125  49.9930  31.8128 0017988 234.2850 125.6415 14.83865065 39467
GEESAT-4 08             
1 65126U 25170H   26121.19399509  .00002354  00000+0  32075-3 0  9995
2 65126  49.9664 344.7459 0020916 160.7314 199.4419 14.82003394 40089
GEESAT-4 09             
1 65127U 25170J   26121.26676653  .00002139  00000+0  29924-3 0  9992
2 65127  49.9914  60.6223 0022000 212.2182 147.7412 14.81232594 39041
GEESAT-4 10             
1 65128U 25170K   26121.16134331  .00002447  00000+0  33253-3 0  9996
2 65128  49.9785 344.8473 0025350 110.3035 250.0630 14.81926316 40086
GEESAT-4 11             
1 65129U 25170L   26121.30574233  .00002374  00000+0  31036-3 0  9998
2 65129  49.9849  31.1647 0007140 272.8048  87.2073 14.83826618 39470
KUIPER-00081            
1 65132U 25171A   26120.65242098  .00003813  00000+0  52898-3 0  9999
2 65132  51.9000 278.2936 0000444 102.9507 257.1505 14.79928062 40734
KUIPER-00088            
1 65133U 25171B   26120.97120086  .00001568  00000+0  23464-3 0  9999
2 65133  51.8998 294.3896 0000742  91.3865 268.7183 14.79921097 40532
KUIPER-00095            
1 65134U 25171C   26120.85771524  .00004734  00000+0  64957-3 0  9996
2 65134  51.8979 274.9507 0000455 100.4782 259.6231 14.79929872 40796
KUIPER-00096            
1 65135U 25171D   26120.67539633 -.00001159  00000+0 -12313-3 0  9999
2 65135  51.8993 288.1955 0000365 132.9701 227.1292 14.79926350 40591
KUIPER-00097            
1 65136U 25171E   26121.07789320  .00001332  00000+0  20375-3 0  9993
2 65136  51.9025 289.0573 0000587 108.3394 251.7632 14.79926541 40601
KUIPER-00098            
1 65137U 25171F   26121.21023377  .00004869  00000+0  66702-3 0  9995
2 65137  51.9007 290.8450 0000604 112.9039 247.1987 14.79949184 39948
KUIPER-00099            
1 65138U 25171G   26120.64701643  .00014117  00000+0  18755-2 0  9992
2 65138  51.9032 283.3293 0000716 124.0437 236.0594 14.79964074 40655
KUIPER-00100            
1 65139U 25171H   26120.81855186  .00001996  00000+0  29078-3 0  9996
2 65139  51.9016 280.0450 0000663 104.9004 255.2032 14.79923824 40710
KUIPER-00102            
1 65140U 25171J   26120.68077643  .00004145  00000+0  57246-3 0  9994
2 65140  51.8984 283.1644 0000527 104.7371 255.3649 14.79930872 40657
KUIPER-00103            
1 65141U 25171K   26120.69567247  .00003594  00000+0  50011-3 0  9990
2 65141  51.8995 300.5933 0000591 107.8897 252.2130 14.79941458 40410
KUIPER-00104            
1 65142U 25171L   26121.18186037  .00004886  00000+0  66924-3 0  9995
2 65142  51.9019 285.9203 0000535 105.4491 254.6531 14.79945522 40661
KUIPER-00105            
1 65143U 25171M   26121.20756330  .00004822  00000+0  66110-3 0  9995
2 65143  51.9002 293.4206 0000573 112.3189 247.7835 14.79929498 40567
KUIPER-00106            
1 65144U 25171N   26120.83677534  .00007261  00000+0  63605-3 0  9998
2 65144  51.8917 277.9606 0007013 275.6851  84.3319 14.97588345 40753
KUIPER-00107            
1 65145U 25171P   26120.82124311 -.00000493  00000+0 -35704-4 0  9990
2 65145  51.9010 277.5657 0000692 129.2080 230.8944 14.79925999 40757
KUIPER-00108            
1 65146U 25171Q   26120.90906332  .00004451  00000+0  61241-3 0  9991
2 65146  51.9019 289.7048 0000613 103.3643 256.7387 14.79935789 40595
KUIPER-00109            
1 65147U 25171R   26120.67803890 -.00006915  00000+0 -87955-3 0  9990
2 65147  51.9035 285.6701 0000519 117.8596 242.2419 14.79904472 40622
KUIPER-00110            
1 65148U 25171S   26120.69838271  .00003802  00000+0  52750-3 0  9999
2 65148  51.9005 298.1540 0000793  98.4095 261.6957 14.79932847 40441
KUIPER-00111            
1 65149U 25171T   26121.19945092  .00002334  00000+0  33518-3 0  9996
2 65149  51.8973 300.8348 0000671  92.4431 267.6608 14.79923557 40453
KUIPER-00112            
1 65150U 25171U   26121.18438379  .00004981  00000+0  68085-3 0  9999
2 65150  51.9017 283.4784 0000663 146.9557 213.1447 14.79999652 40692
KUIPER-00114            
1 65151U 25171V   26121.19676109  .00003019  00000+0  42488-3 0  9996
2 65151  51.8988 303.4134 0000580  93.5020 266.6008 14.79925226 40413
KUIPER-00115            
1 65152U 25171W   26121.20485056  .00004686  00000+0  64312-3 0  9999
2 65152  51.9006 295.8707 0000701 115.5977 244.5058 14.79944011 40522
KUIPER-00116            
1 65153U 25171X   26121.23323197  .00004719  00000+0  64786-3 0  9992
2 65153  51.9008 300.7838 0000586  99.9275 260.1754 14.79913092 40457
